IRIDIUM 150             
1 43257U 18030J   25265.93471414  .00000321  00000+0  10770-3 0  9999
2 43257  86.3971  42.1680 0002265  87.7455 272.4000 14.34219506391855
IRIDIUM 143             
1 43258U 18030K   25266.12499334  .00000061  00000+0  14807-4 0  9990
2 43258  86.3974  42.1705 0002382  83.9445 276.2022 14.34217972391811
IRIDIUM 161             
1 43478U 18047C   25266.17593175  .00000771  00000+0  22304-3 0  9993
2 43478  86.4549 199.9975 0002187  87.4788 272.6663 14.43287424386629
IRIDIUM 152             
1 43479U 18047D   25265.81863667  .00000113  00000+0  33360-4 0  9995
2 43479  86.4022 200.0072 0002303  87.7922 272.3537 14.34218482384163
IRIDIUM 147             
1 43480U 18047E   25266.17382200  .00000131  00000+0  39829-4 0  9992
2 43480  86.4027 199.8597 0002097  83.5434 276.6000 14.34218326384214
IRIDIUM 110             
1 43481U 18047F   25266.18016350  .00000204  00000+0  65746-4 0  9992
2 43481  86.4029 199.9418 0001938  95.4264 264.7153 14.34218818384208
IRIDIUM 162             
1 43482U 18047G   25265.82297875  .00000571  00000+0  16386-3 0  9998
2 43482  86.4547 200.0389 0002298  91.7206 268.4258 14.43285545386569
IRIDIUM 160             
1 43569U 18061A   25265.77715812  .00000059  00000+0  14011-4 0  9995
2 43569  86.4042 168.5558 0001954  88.3877 271.7542 14.34217908375047
